FLOCK 4Q-16             
1 58271U 23174R   26199.15801065  .00013804  00000+0  24379-3 0  9996
2 58271  97.3820 288.0120 0006692  68.7482 291.4483 15.50455796150377
FLOCK 4Q-11             
1 58273U 23174T   26199.19459552  .00013370  00000+0  23208-3 0  9990
2 58273  97.3853 288.6888 0006096  63.0787 297.1087 15.50958433150397
FLOCK 4Q-28             
1 58280U 23174AA  26199.23606838  .00018255  00000+0  25526-3 0  9996
2 58280  97.3882 291.4954 0004543  54.2556 305.9121 15.56879137150570
FLOCK 4Q-27             
1 58282U 23174AC  26199.17321160  .00020433  00000+0  28339-3 0  9999
2 58282  97.3808 290.8351 0003695  59.9824 300.1797 15.57080498150572
FLOCK 4Q-7              
1 58318U 23174BQ  26199.19060135  .00020918  00000+0  28558-3 0  9994
2 58318  97.3905 291.7786 0004312  31.7676 328.3839 15.57498684150571
FLOCK 4Q-2              
1 58320U 23174BS  26199.17949370  .00013319  00000+0  23156-3 0  9998
2 58320  97.3838 288.3850 0004495  42.0493 318.1103 15.50923421150405
FLOCK 4Q-9              
1 58322U 23174BU  26199.19518891  .00015707  00000+0  26760-3 0  9999
2 58322  97.3850 288.5154 0005322  40.7044 319.4605 15.51452030150390
FLOCK 4Q-4              
1 58327U 23174BZ  26199.14778672  .00013780  00000+0  24783-3 0  9996
2 58327  97.3824 287.5740 0005555  66.7133 293.4703 15.49947354150352
FLOCK 4Q-13             
1 58328U 23174CA  26199.19151254  .00012734  00000+0  20592-3 0  9995
2 58328  97.4000 290.9448 0005664  46.7995 313.3730 15.52964635150489
FLOCK 4BE-18            
1 60480U 24149N   26199.15758147  .00009370  00000+0  21615-3 0  9999
2 60480  97.3722 283.2312 0005194 135.8306 224.3357 15.42771381107087
FLOCK 4BE-7             
1 60481U 24149P   26199.19314204  .00015144  00000+0  36237-3 0  9998
2 60481  97.3749 282.5528 0004464 140.9540 219.2030 15.41545020107027
FLOCK 4BE-36            
1 60486U 24149U   26199.17730125  .00009635  00000+0  21613-3 0  9995
2 60486  97.3738 283.9959 0005026 144.5500 215.6083 15.43602509107132
FLOCK 4BE-25            
1 60487U 24149V   26199.16243593  .00007882  00000+0  20231-3 0  9990
2 60487  97.3790 282.5390 0003807 135.9568 224.1982 15.39594007107005
FLOCK 4BE-31            
1 60488U 24149W   26199.17798151  .00011298  00000+0  23955-3 0  9999
2 60488  97.3790 284.9496 0003875 143.4483 216.7031 15.45231114107167
FLOCK 4BE-20            
1 60489U 24149X   26199.14097298  .00007602  00000+0  19987-3 0  9995
2 60489  97.3685 281.3184 0005249 145.6426 214.5160 15.38862268106973
FLOCK 4BE-23            
1 60490U 24149Y   26199.13971738  .00007361  00000+0  19646-3 0  9990
2 60490  97.3771 281.7092 0004893 148.1864 211.9678 15.38412148106952
