{"fetched_at":"2026-07-18T17:29:33.240Z","source":"https://celestrak.org/NORAD/elements/gp.php?GROUP=planet&FORMAT=JSON","constellation":"superdove","records":[{"OBJECT_NAME":"FLOCK 4Q-16","OBJECT_ID":"2023-174R","EPOCH":"2026-07-18T03:47:32.120160","CLASSIFICATION_TYPE":"U","MEAN_MOTION":15.50455796,"ECCENTRICITY":0.00066926,"INCLINATION":97.382,"RA_OF_ASC_NODE":288.012,"ARG_OF_PERICENTER":68.7482,"MEAN_ANOMALY":291.4483,"EPHEMERIS_TYPE":0,"NORAD_CAT_ID":58271,"ELEMENT_SET_NO":999,"REV_AT_EPOCH":15037,"BSTAR":0.00024378507,"MEAN_MOTION_DOT":0.00013804,"MEAN_MOTION_DDOT":0},{"OBJECT_NAME":"FLOCK 4Q-11","OBJECT_ID":"2023-174T","EPOCH":"2026-07-18T04:40:13.052928","CLASSIFICATION_TYPE":"U","MEAN_MOTION":15.50958433,"ECCENTRICITY":0.00060967,"INCLINATION":97.3853,"RA_OF_ASC_NODE":288.6888,"ARG_OF_PERICENTER":63.0787,"MEAN_ANOMALY":297.1087,"EPHEMERIS_TYPE":0,"NORAD_CAT_ID":58273,"ELEMENT_SET_NO":999,"REV_AT_EPOCH":15039,"BSTAR":0.0002320762,"MEAN_MOTION_DOT":0.0001337,"MEAN_MOTION_DDOT":0},{"OBJECT_NAME":"FLOCK 4Q-28","OBJECT_ID":"2023-174AA","EPOCH":"2026-07-18T05:39:56.308032","CLASSIFICATION_TYPE":"U","MEAN_MOTION":15.56879137,"ECCENTRICITY":0.00045433,"INCLINATION":97.3882,"RA_OF_ASC_NODE":291.4954,"ARG_OF_PERICENTER":54.2556,"MEAN_ANOMALY":305.9121,"EPHEMERIS_TYPE":0,"NORAD_CAT_ID":58280,"ELEMENT_SET_NO":999,"REV_AT_EPOCH":15057,"BSTAR":0.00025525845,"MEAN_MOTION_DOT":0.00018255,"MEAN_MOTION_DDOT":0},{"OBJECT_NAME":"FLOCK 4Q-27","OBJECT_ID":"2023-174AC","EPOCH":"2026-07-18T04:09:25.482240","CLASSIFICATION_TYPE":"U","MEAN_MOTION":15.57080498,"ECCENTRICITY":0.00036955,"INCLINATION":97.3808,"RA_OF_ASC_NODE":290.8351,"ARG_OF_PERICENTER":59.9824,"MEAN_ANOMALY":300.1797,"EPHEMERIS_TYPE":0,"NORAD_CAT_ID":58282,"ELEMENT_SET_NO":999,"REV_AT_EPOCH":15057,"BSTAR":0.00028339344,"MEAN_MOTION_DOT":0.00020433,"MEAN_MOTION_DDOT":0},{"OBJECT_NAME":"FLOCK 4Q-7","OBJECT_ID":"2023-174BQ","EPOCH":"2026-07-18T04:34:27.956640","CLASSIFICATION_TYPE":"U","MEAN_MOTION":15.57498684,"ECCENTRICITY":0.00043127,"INCLINATION":97.3905,"RA_OF_ASC_NODE":291.7786,"ARG_OF_PERICENTER":31.7676,"MEAN_ANOMALY":328.3839,"EPHEMERIS_TYPE":0,"NORAD_CAT_ID":58318,"ELEMENT_SET_NO":999,"REV_AT_EPOCH":15057,"BSTAR":0.0002855769,"MEAN_MOTION_DOT":0.00020918,"MEAN_MOTION_DDOT":0},{"OBJECT_NAME":"FLOCK 4Q-2","OBJECT_ID":"2023-174BS","EPOCH":"2026-07-18T04:18:28.255680","CLASSIFICATION_TYPE":"U","MEAN_MOTION":15.50923421,"ECCENTRICITY":0.00044955,"INCLINATION":97.3838,"RA_OF_ASC_NODE":288.385,"ARG_OF_PERICENTER":42.0493,"MEAN_ANOMALY":318.1103,"EPHEMERIS_TYPE":0,"NORAD_CAT_ID":58320,"ELEMENT_SET_NO":999,"REV_AT_EPOCH":15040,"BSTAR":0.00023155947,"MEAN_MOTION_DOT":0.00013319,"MEAN_MOTION_DDOT":0},{"OBJECT_NAME":"FLOCK 4Q-9","OBJECT_ID":"2023-174BU","EPOCH":"2026-07-18T04:41:04.321824","CLASSIFICATION_TYPE":"U","MEAN_MOTION":15.5145203,"ECCENTRICITY":0.00053229,"INCLINATION":97.385,"RA_OF_ASC_NODE":288.5154,"ARG_OF_PERICENTER":40.7044,"MEAN_ANOMALY":319.4605,"EPHEMERIS_TYPE":0,"NORAD_CAT_ID":58322,"ELEMENT_SET_NO":999,"REV_AT_EPOCH":15039,"BSTAR":0.00026759754,"MEAN_MOTION_DOT":0.00015707,"MEAN_MOTION_DDOT":0},{"OBJECT_NAME":"FLOCK 4Q-4","OBJECT_ID":"2023-174BZ","EPOCH":"2026-07-18T03:32:48.772608","CLASSIFICATION_TYPE":"U","MEAN_MOTION":15.49947354,"ECCENTRICITY":0.00055555,"INCLINATION":97.3824,"RA_OF_ASC_NODE":287.574,"ARG_OF_PERICENTER":66.7133,"MEAN_ANOMALY":293.4703,"EPHEMERIS_TYPE":0,"NORAD_CAT_ID":58327,"ELEMENT_SET_NO":999,"REV_AT_EPOCH":15035,"BSTAR":0.00024782529,"MEAN_MOTION_DOT":0.0001378,"MEAN_MOTION_DDOT":0},{"OBJECT_NAME":"FLOCK 4Q-13","OBJECT_ID":"2023-174CA","EPOCH":"2026-07-18T04:35:46.683456","CLASSIFICATION_TYPE":"U","MEAN_MOTION":15.52964635,"ECCENTRICITY":0.00056644,"INCLINATION":97.4,"RA_OF_ASC_NODE":290.9448,"ARG_OF_PERICENTER":46.7995,"MEAN_ANOMALY":313.373,"EPHEMERIS_TYPE":0,"NORAD_CAT_ID":58328,"ELEMENT_SET_NO":999,"REV_AT_EPOCH":15048,"BSTAR":0.00020591913,"MEAN_MOTION_DOT":0.00012734,"MEAN_MOTION_DDOT":0},{"OBJECT_NAME":"FLOCK 4BE-18","OBJECT_ID":"2024-149N","EPOCH":"2026-07-18T03:46:55.039008","CLASSIFICATION_TYPE":"U","MEAN_MOTION":15.42771381,"ECCENTRICITY":0.00051944,"INCLINATION":97.3722,"RA_OF_ASC_NODE":283.2312,"ARG_OF_PERICENTER":135.8306,"MEAN_ANOMALY":224.3357,"EPHEMERIS_TYPE":0,"NORAD_CAT_ID":60480,"ELEMENT_SET_NO":999,"REV_AT_EPOCH":10708,"BSTAR":0.00021615481,"MEAN_MOTION_DOT":0.0000937,"MEAN_MOTION_DDOT":0},{"OBJECT_NAME":"FLOCK 4BE-7","OBJECT_ID":"2024-149P","EPOCH":"2026-07-18T04:38:07.472256","CLASSIFICATION_TYPE":"U","MEAN_MOTION":15.4154502,"ECCENTRICITY":0.00044647,"INCLINATION":97.3749,"RA_OF_ASC_NODE":282.5528,"ARG_OF_PERICENTER":140.954,"MEAN_ANOMALY":219.203,"EPHEMERIS_TYPE":0,"NORAD_CAT_ID":60481,"ELEMENT_SET_NO":999,"REV_AT_EPOCH":10702,"BSTAR":0.00036237228,"MEAN_MOTION_DOT":0.00015144,"MEAN_MOTION_DDOT":0},{"OBJECT_NAME":"FLOCK 4BE-36","OBJECT_ID":"2024-149U","EPOCH":"2026-07-18T04:15:18.828000","CLASSIFICATION_TYPE":"U","MEAN_MOTION":15.43602509,"ECCENTRICITY":0.00050265,"INCLINATION":97.3738,"RA_OF_ASC_NODE":283.9959,"ARG_OF_PERICENTER":144.55,"MEAN_ANOMALY":215.6083,"EPHEMERIS_TYPE":0,"NORAD_CAT_ID":60486,"ELEMENT_SET_NO":999,"REV_AT_EPOCH":10713,"BSTAR":0.00021612568,"MEAN_MOTION_DOT":0.00009635,"MEAN_MOTION_DDOT":0},{"OBJECT_NAME":"FLOCK 4BE-25","OBJECT_ID":"2024-149V","EPOCH":"2026-07-18T03:53:54.464352","CLASSIFICATION_TYPE":"U","MEAN_MOTION":15.39594007,"ECCENTRICITY":0.00038073,"INCLINATION":97.379,"RA_OF_ASC_NODE":282.539,"ARG_OF_PERICENTER":135.9568,"MEAN_ANOMALY":224.1982,"EPHEMERIS_TYPE":0,"NORAD_CAT_ID":60487,"ELEMENT_SET_NO":999,"REV_AT_EPOCH":10700,"BSTAR":0.00020231486,"MEAN_MOTION_DOT":0.00007882,"MEAN_MOTION_DDOT":0},{"OBJECT_NAME":"FLOCK 4BE-31","OBJECT_ID":"2024-149W","EPOCH":"2026-07-18T04:16:17.602464","CLASSIFICATION_TYPE":"U","MEAN_MOTION":15.45231114,"ECCENTRICITY":0.00038752,"INCLINATION":97.379,"RA_OF_ASC_NODE":284.9496,"ARG_OF_PERICENTER":143.4483,"MEAN_ANOMALY":216.7031,"EPHEMERIS_TYPE":0,"NORAD_CAT_ID":60488,"ELEMENT_SET_NO":999,"REV_AT_EPOCH":10716,"BSTAR":0.00023955254,"MEAN_MOTION_DOT":0.00011298,"MEAN_MOTION_DDOT":0},{"OBJECT_NAME":"FLOCK 4BE-20","OBJECT_ID":"2024-149X","EPOCH":"2026-07-18T03:23:00.065472","CLASSIFICATION_TYPE":"U","MEAN_MOTION":15.38862268,"ECCENTRICITY":0.00052498,"INCLINATION":97.3685,"RA_OF_ASC_NODE":281.3184,"ARG_OF_PERICENTER":145.6426,"MEAN_ANOMALY":214.516,"EPHEMERIS_TYPE":0,"NORAD_CAT_ID":60489,"ELEMENT_SET_NO":999,"REV_AT_EPOCH":10697,"BSTAR":0.00019986818,"MEAN_MOTION_DOT":0.00007602,"MEAN_MOTION_DDOT":0},{"OBJECT_NAME":"FLOCK 4BE-23","OBJECT_ID":"2024-149Y","EPOCH":"2026-07-18T03:21:11.581632","CLASSIFICATION_TYPE":"U","MEAN_MOTION":15.38412148,"ECCENTRICITY":0.00048938,"INCLINATION":97.3771,"RA_OF_ASC_NODE":281.7092,"ARG_OF_PERICENTER":148.1864,"MEAN_ANOMALY":211.9678,"EPHEMERIS_TYPE":0,"NORAD_CAT_ID":60490,"ELEMENT_SET_NO":999,"REV_AT_EPOCH":10695,"BSTAR":0.00019645545,"MEAN_MOTION_DOT":0.00007361,"MEAN_MOTION_DDOT":0}]}
